NORAD_CAT_ID,OBJECT_NAME,OBJECT_TYPE,EPOCH,MEAN_MOTION,ECCENTRICITY,INCLINATION,RA_OF_ASC_NODE,ARG_OF_PERICENTER,MEAN_ANOMALY,BSTAR,MEAN_MOTION_DOT,MEAN_MOTION_DDOT,TLE_LINE0,TLE_LINE1,TLE_LINE2,SEMIMAJOR_AXIS,PERIOD,APOGEE,PERIGEE,DECAYED
55769.0,STARLINK-5584,PAYLOAD,2024-03-19 11:54:28,14.98331516,0.0002697,70.0008,240.3765,259.2104,100.8752,-2.7089e-06,-1.25e-06,0.0,0 STARLINK-5584,1 55769U 23028AE  24079.49615881 -.00000125  00000-0 -27089-5 0  9992,2 55769  70.0008 240.3765 0002697 259.2104 100.8752 14.98331516 58651,6950.188,96.107,573.928,570.179,0.0
55769.0,STARLINK-5584,PAYLOAD,2024-03-19 19:55:08,14.98335468,0.0002757,70.0005,239.5342,260.0476,100.0372,3.4511e-05,3.19e-06,0.0,0 STARLINK-5584,1 55769U 23028AE  24079.82995458  .00000319  00000-0  34511-4 0  9990,2 55769  70.0005 239.5342 0002757 260.0476 100.0372 14.98335468 58692,6950.176,96.107,573.957,570.125,0.0
55769.0,STARLINK-5584,PAYLOAD,2024-03-20 10:20:21,14.98326087,0.0002435,70.002,238.0211,247.5167,112.5734,-2.2302e-05,-3.59e-06,0.0,0 STARLINK-5584,1 55769U 23028AE  24080.43080218 -.00000359  00000-0 -22302-4 0  9999,2 55769  70.0020 238.0211 0002435 247.5167 112.5734 14.98326087 58785,6950.205,96.107,573.762,570.378,0.0
55769.0,STARLINK-5584,PAYLOAD,2024-03-20 13:32:37,14.9830525,0.0002393,70.001,237.6834,247.8399,112.2506,0.00023736,2.738e-05,0.0,0 STARLINK-5584,1 55769U 23028AE  24080.56432713  .00002738  00000-0  23736-3 0  9996,2 55769  70.0010 237.6834 0002393 247.8399 112.2506 14.98305250 58810,6950.269,96.109,573.798,570.471,0.0
55769.0,STARLINK-5584,PAYLOAD,2024-03-20 19:57:10,14.98318813,0.0002602,70.001,237.01,253.945,106.1422,-8.7403e-05,-1.135e-05,0.0,0 STARLINK-5584,1 55769U 23028AE  24080.83137035 -.00001135  00000-0 -87403-4 0  9999,2 55769  70.0010 237.0100 0002602 253.9450 106.1422 14.98318813 58840,6950.227,96.108,573.901,570.284,0.0
55769.0,STARLINK-5584,PAYLOAD,2024-03-21 03:57:50,14.98330175,0.0002967,70.0002,236.1669,265.7987,94.2833,-4.7025e-05,-6.54e-06,0.0,0 STARLINK-5584,1 55769U 23028AE  24081.16516375 -.00000654  00000-0 -47025-4 0  9995,2 55769  70.0002 236.1669 0002967 265.7987  94.2833 14.98330175 58894,6950.192,96.107,574.119,569.995,0.0
55769.0,STARLINK-5584,PAYLOAD,2024-03-21 13:34:38,14.98335435,0.0003048,69.9999,235.1569,270.0426,90.0383,-6.3288e-06,-1.69e-06,0.0,0 STARLINK-5584,1 55769U 23028AE  24081.56571879 -.00000169  00000-0 -63288-5 0  9990,2 55769  69.9999 235.1569 0003048 270.0426  90.0383 14.98335435 58968,6950.176,96.107,574.159,569.923,0.0
55769.0,STARLINK-5584,PAYLOAD,2024-03-21 19:59:09,14.98342286,0.0003072,69.9997,234.4834,269.8711,90.2096,7.6145e-05,8.16e-06,0.0,0 STARLINK-5584,1 55769U 23028AE  24081.83275077  .00000816  00000-0  76145-4 0  9993,2 55769  69.9997 234.4834 0003072 269.8711  90.2096 14.98342286 58991,6950.155,96.106,574.155,569.885,0.0
55769.0,STARLINK-5584,PAYLOAD,2024-03-22 12:00:30,14.98329976,0.0002636,70.0006,232.8011,258.3114,101.775,0.00012059,1.346e-05,0.0,0 STARLINK-5584,1 55769U 23028AE  24082.50035520  .00001346  00000-0  12059-3 0  9997,2 55769  70.0006 232.8011 0002636 258.3114 101.7750 14.98329976 59097,6950.193,96.107,573.89,570.226,0.0
55769.0,STARLINK-5584,PAYLOAD,2024-03-22 13:36:38,14.9833026,0.0002707,70.0007,232.6328,260.0438,100.0415,0.00011948,1.333e-05,0.0,0 STARLINK-5584,1 55769U 23028AE  24082.56711494  .00001333  00000-0  11948-3 0  9996,2 55769  70.0007 232.6328 0002707 260.0438 100.0415 14.98330260 59116,6950.192,96.107,573.939,570.176,0.0
55769.0,STARLINK-5584,PAYLOAD,2024-03-22 20:01:10,14.98332206,0.0002607,70.0009,231.9597,259.7991,100.2874,0.00013481,1.516e-05,0.0,0 STARLINK-5584,1 55769U 23028AE  24082.83415313  .00001516  00000-0  13481-3 0  9994,2 55769  70.0009 231.9597 0002607 259.7991 100.2874 14.98332206 59153,6950.186,96.107,573.863,570.239,0.0
55769.0,STARLINK-5584,PAYLOAD,2024-03-23 12:02:32,14.98330866,0.0002266,70.0024,230.2776,264.3135,95.7765,-0.00012378,-1.569e-05,0.0,0 STARLINK-5584,1 55769U 23028AE  24083.50176194 -.00001569  00000-0 -12378-3 0  9994,2 55769  70.0024 230.2776 0002266 264.3135  95.7765 14.98330866 59241,6950.19,96.107,573.63,570.48,0.0
55769.0,STARLINK-5584,PAYLOAD,2024-03-23 20:03:12,14.98327624,0.000265,70.0021,229.4364,268.3188,91.7668,-9.036e-05,-1.171e-05,0.0,0 STARLINK-5584,1 55769U 23028AE  24083.83556283 -.00001171  00000-0 -90360-4 0  9998,2 55769  70.0021 229.4364 0002650 268.3188  91.7668 14.98327624 59303,6950.2,96.107,573.907,570.223,0.0
55769.0,STARLINK-5584,PAYLOAD,2024-03-24 12:04:33,14.98326138,0.0002361,70.0018,227.7532,250.8011,109.2893,-7.0853e-05,-9.38e-06,0.0,0 STARLINK-5584,1 55769U 23028AE  24084.50316284 -.00000938  00000-0 -70853-4 0  9993,2 55769  70.0018 227.7532 0002361 250.8011 109.2893 14.98326138 59390,6950.205,96.107,573.711,570.429,0.0
55769.0,STARLINK-5584,PAYLOAD,2024-03-24 13:40:41,14.98326133,0.0002356,70.0018,227.5849,250.9938,109.0966,-6.879e-05,-9.13e-06,0.0,0 STARLINK-5584,1 55769U 23028AE  24084.56992297 -.00000913  00000-0 -68790-4 0  9993,2 55769  70.0018 227.5849 0002356 250.9938 109.0966 14.98326133 59419,6950.205,96.107,573.707,570.432,0.0
55769.0,STARLINK-5584,PAYLOAD,2024-03-24 18:29:05,14.98329506,0.0002519,70.0012,227.0792,255.5392,104.5488,-3.6277e-05,-5.26e-06,0.0,0 STARLINK-5584,1 55769U 23028AE  24084.77020019 -.00000526  00000-0 -36277-4 0  9995,2 55769  70.0012 227.0792 0002519 255.5392 104.5488 14.98329506 59440,6950.194,96.107,573.81,570.309,0.0
55769.0,STARLINK-5584,PAYLOAD,2024-03-25 02:29:45,14.98331127,0.00026,70.0012,226.2384,250.8113,109.2765,4.9704e-05,5e-06,0.0,0 STARLINK-5584,1 55769U 23028AE  24085.10399689  .00000500  00000-0  49704-4 0  9994,2 55769  70.0012 226.2384 0002600 250.8113 109.2765 14.98331127 59484,6950.189,96.107,573.861,570.247,0.0
55769.0,STARLINK-5584,PAYLOAD,2024-03-25 18:31:05,14.9833247,0.0002602,70.001,224.5547,262.2881,97.7983,0.00010522,1.163e-05,0.0,0 STARLINK-5584,1 55769U 23028AE  24085.77159414  .00001163  00000-0  10522-3 0  9998,2 55769  70.0010 224.5547 0002602 262.2881  97.7983 14.98332470 59592,6950.185,96.107,573.859,570.242,0.0
55769.0,STARLINK-5584,PAYLOAD,2024-03-26 12:08:35,14.98318902,0.0003083,70.0004,222.7028,271.2639,88.8167,-9.0048e-05,-1.167e-05,0.0,0 STARLINK-5584,1 55769U 23028AE  24086.50597027 -.00001167  00000-0 -90048-4 0  9994,2 55769  70.0004 222.7028 0003083 271.2639  88.8167 14.98318902 59694,6950.227,96.108,574.235,569.949,0.0
55769.0,STARLINK-5584,PAYLOAD,2024-03-26 15:20:52,14.98318408,0.000301,70.0006,222.3665,269.8569,90.2245,-8.9441e-05,-1.16e-05,0.0,0 STARLINK-5584,1 55769U 23028AE  24086.63949132 -.00001160  00000-0 -89441-4 0  9994,2 55769  70.0006 222.3665 0003010 269.8569  90.2245 14.98318408 59723,6950.229,96.108,574.186,570.002,0.0
55769.0,STARLINK-5584,PAYLOAD,2024-03-26 18:33:08,14.98320507,0.0002973,70.0006,222.0296,270.5717,89.5102,-6.7092e-05,-8.93e-06,0.0,0 STARLINK-5584,1 55769U 23028AE  24086.77301020 -.00000893  00000-0 -67092-4 0  9997,2 55769  70.0006 222.0296 0002973 270.5717  89.5102 14.98320507 59749,6950.222,96.108,574.154,570.021,0.0
55769.0,STARLINK-5584,PAYLOAD,2024-03-27 02:33:48,14.9832559,0.0003021,70.0005,221.1877,271.1463,88.935,-7.6637e-05,-1.007e-05,0.0,0 STARLINK-5584,1 55769U 23028AE  24087.10680843 -.00001007  00000-0 -76637-4 0  9991,2 55769  70.0005 221.1877 0003021 271.1463  88.9350 14.98325590 59782,6950.207,96.107,574.171,569.972,0.0
55769.0,STARLINK-5584,PAYLOAD,2024-03-27 15:22:52,14.98334854,0.0003108,70.0003,219.8404,269.5247,90.5556,7.3971e-06,-5e-08,0.0,0 STARLINK-5584,1 55769U 23028AE  24087.64088051 -.00000005  00000-0  73971-5 0  9998,2 55769  70.0003 219.8404 0003108 269.5247  90.5556 14.98334854 59877,6950.178,96.107,574.203,569.883,0.0
55769.0,STARLINK-5584,PAYLOAD,2024-03-27 18:35:07,14.98337663,0.0003078,70.0005,219.5038,269.5118,90.5688,4.2765e-05,4.17e-06,0.0,0 STARLINK-5584,1 55769U 23028AE  24087.77439747  .00000417  00000-0  42765-4 0  9996,2 55769  70.0005 219.5038 0003078 269.5118  90.5688 14.98337663 59880,6950.169,96.107,574.173,569.895,0.0
55769.0,STARLINK-5584,PAYLOAD,2024-03-28 12:12:36,14.98327879,0.0003143,70.0007,217.6524,272.1345,87.9454,0.00014141,1.595e-05,0.0,0 STARLINK-5584,1 55769U 23028AE  24088.50876055  .00001595  00000-0  14141-3 0  9999,2 55769  70.0007 217.6524 0003143 272.1345  87.9454 14.98327879 59997,6950.199,96.107,574.249,569.88,0.0
55769.0,STARLINK-5584,PAYLOAD,2024-03-28 15:24:52,14.98332748,0.0003135,70.0007,217.3158,272.0333,88.0467,0.00018801,2.151e-05,0.0,0 STARLINK-5584,1 55769U 23028AE  24088.64227608  .00002151  00000-0  18801-3 0  9994,2 55769  70.0007 217.3158 0003135 272.0333  88.0467 14.98332748 60027,6950.184,96.107,574.228,569.871,0.0
55769.0,STARLINK-5584,PAYLOAD,2024-03-29 12:14:37,14.98330724,0.0003158,70.0009,215.1279,272.0689,88.0108,1.4626e-05,8.2e-07,0.0,0 STARLINK-5584,1 55769U 23028AE  24089.51016074  .00000082  00000-0  14626-4 0  9997,2 55769  70.0009 215.1279 0003158 272.0689  88.0108 14.98330724 60145,6950.191,96.107,574.251,569.861,0.0
55769.0,STARLINK-5584,PAYLOAD,2024-03-29 15:26:53,14.9833673,0.000301,70.0011,214.7915,269.6111,90.4703,3.0512e-05,2.71e-06,0.0,0 STARLINK-5584,1 55769U 23028AE  24089.64367612  .00000271  00000-0  30512-4 0  9990,2 55769  70.0011 214.7915 0003010 269.6111  90.4703 14.98336730 60173,6950.172,96.107,574.129,569.945,0.0
55769.0,STARLINK-5584,PAYLOAD,2024-03-30 12:16:38,14.98330136,0.00031,70.0006,212.6036,271.2249,88.8555,-9.7667e-05,-1.258e-05,0.0,0 STARLINK-5584,1 55769U 23028AE  24090.51156164 -.00001258  00000-0 -97667-4 0  9998,2 55769  70.0006 212.6036 0003100 271.2249  88.8555 14.98330136 60292,6950.192,96.107,574.212,569.903,0.0
55769.0,STARLINK-5584,PAYLOAD,2024-03-31 12:18:39,14.98333911,0.0003153,70.0007,210.0801,268.0714,92.0084,8.8545e-06,1.3e-07,0.0,0 STARLINK-5584,1 55769U 23028AE  24091.51295457  .00000013  00000-0  88545-5 0  9990,2 55769  70.0007 210.0801 0003153 268.0714  92.0084 14.98333911 60449,6950.181,96.107,574.237,569.854,0.0
